OBJECT_NAME,OBJECT_ID,EPOCH,MEAN_MOTION,ECCENTRICITY,INCLINATION,RA_OF_ASC_NODE,ARG_OF_PERICENTER,MEAN_ANOMALY,EPHEMERIS_TYPE,CLASSIFICATION_TYPE,NORAD_CAT_ID,ELEMENT_SET_NO,REV_AT_EPOCH,BSTAR,MEAN_MOTION_DOT,MEAN_MOTION_DDOT
ONEWEB-0068,2020-020Y,2026-06-25T13:06:13.843584,13.11417287,.00016877,87.8890,19.4002,82.2009,277.9311,0,U,45446,999,30369,.13322904E-2,.485E-5,0
ONEWEB-0046,2020-020Z,2026-06-25T12:54:12.715488,13.11417498,.0001895,87.8883,19.4072,78.4839,281.6502,0,U,45447,999,30370,.52831889E-3,.2E-5,0
ONEWEB-0063,2020-020AA,2026-06-25T13:35:54.690144,13.11414004,.00020912,87.8890,19.4007,83.6697,276.4669,0,U,45448,999,30379,.65324525E-3,.244E-5,0
ONEWEB-0019,2020-020AB,2026-06-25T12:41:48.056352,13.11418483,.00018118,87.8885,19.3943,91.9456,268.1879,0,U,45449,999,30363,-.50805052E-3,-.167E-5,0
ONEWEB-0094,2020-020AC,2026-06-25T13:20:31.551936,13.17648015,.00016459,87.9141,4.1847,91.2397,268.8923,0,U,45450,999,30741,.79850681E-4,.44E-6,0
ONEWEB-0087,2020-020AD,2026-06-25T13:50:09.286368,13.11414465,.00015783,87.8898,19.3735,81.6065,278.5242,0,U,45451,999,30368,-.44578599E-3,-.145E-5,0
ONEWEB-0082,2020-020AE,2026-06-25T13:45:16.814592,13.11414217,.00016549,87.8890,19.3901,72.1760,287.9549,0,U,45452,999,30377,-.98100097E-4,-.22E-6,0
ONEWEB-0050,2020-020AF,2026-06-25T09:37:19.274592,14.90409870,.00015676,88.9288,232.0946,12.3108,347.8159,0,U,45453,999,34160,.21337379E-3,.2098E-4,0
ONEWEB-0034,2020-020AG,2026-06-25T12:49:31.743552,13.11418956,.00015454,87.8894,19.4075,88.4802,271.6503,0,U,45454,999,30368,-.6777553E-3,-.228E-5,0
ONEWEB-0060,2020-020AH,2026-06-25T13:34:29.681184,13.11414401,.0000922,87.8883,19.3983,67.0094,293.1131,0,U,45455,999,30364,.84250795E-3,.311E-5,0
ONEWEB-0086,2020-020AJ,2026-06-25T13:03:47.286720,13.11419650,.00009581,87.8892,19.3986,109.9153,250.2079,0,U,45456,999,30370,-.28612708E-3,-.89E-6,0
ONEWEB-0088,2020-020AK,2026-06-25T12:32:12.764544,13.11416716,.00021177,87.8899,19.3765,77.8232,282.3133,0,U,45457,999,30363,-.11881524E-2,-.408E-5,0
ONEWEB-0102,2020-100A,2026-06-25T12:28:52.354560,13.12443335,.00017195,87.8942,349.0174,101.4506,258.6816,0,U,47258,999,26582,-.56767943E-3,-.192E-5,0
ONEWEB-0109,2020-100B,2026-06-25T12:41:04.578144,13.12443465,.0001892,87.8954,348.9998,96.5511,263.5833,0,U,47259,999,26565,.24924471E-3,.102E-5,0
ONEWEB-0110,2020-100C,2026-06-25T11:30:19.419552,13.12440831,.0001557,87.8953,348.9937,95.5037,264.6269,0,U,47260,999,26581,.75390537E-3,.284E-5,0
ONEWEB-0111,2020-100D,2026-06-25T12:14:13.866144,13.12442658,.00017533,87.8953,349.0064,90.9085,269.2245,0,U,47261,999,26565,-.88749775E-3,-.307E-5,0
ONEWEB-0114,2020-100E,2026-06-25T11:08:22.896960,13.12446373,.00019561,87.8953,349.0132,96.9767,263.1584,0,U,47262,999,26560,.12653699E-2,.468E-5,0
ONEWEB-0117,2020-100F,2026-06-25T12:45:56.780352,13.12444863,.00017877,87.8951,348.9903,93.0152,267.1181,0,U,47263,999,26562,.62695155E-3,.238E-5,0
ONEWEB-0118,2020-100G,2026-06-25T11:44:57.233184,13.12442066,.00021252,87.8951,349.0013,89.9103,270.2269,0,U,47264,999,26581,-.20325038E-3,-.6E-6,0
ONEWEB-0119,2020-100H,2026-06-25T12:21:32.590656,13.12444718,.00018496,87.8942,349.0124,92.8750,267.2590,0,U,47265,999,26579,-.755272E-3,-.259E-5,0
ONEWEB-0120,2020-100J,2026-06-25T12:55:54.166368,13.12444769,.00019312,87.8942,349.0088,96.8031,263.3317,0,U,47266,999,26582,.10719714E-2,.398E-5,0
ONEWEB-0121,2020-100K,2026-06-25T12:38:37.086432,13.12445278,.00015738,87.8952,348.9980,84.4435,275.6873,0,U,47267,999,26573,.52051286E-4,.31E-6,0
ONEWEB-0122,2020-100L,2026-06-25T12:30:05.827392,13.12444881,.00018005,87.8955,349.0039,97.6784,262.4549,0,U,47268,999,26564,-.35087147E-3,-.114E-5,0
ONEWEB-0123,2020-100M,2026-06-25T12:23:58.558272,13.12443945,.00019423,87.8942,349.0111,90.9269,269.2082,0,U,47269,999,26578,-.1104461E-2,-.385E-5,0
ONEWEB-0124,2020-100N,2026-06-25T12:09:20.307456,13.12441789,.0001761,87.8941,349.0160,89.7100,270.4230,0,U,47270,999,26566,-.10395583E-2,-.361E-5,0
ONEWEB-0125,2020-100P,2026-06-25T11:37:38.186400,13.12440618,.00018242,87.8954,349.0046,82.2025,277.9311,0,U,47271,999,26572,.30574774E-3,.123E-5,0
ONEWEB-0126,2020-100Q,2026-06-25T12:07:07.127040,13.12443249,.00019292,87.8947,349.0156,95.0668,265.0681,0,U,47272,999,26579,-.10002025E-2,-.347E-5,0
ONEWEB-0127,2020-100R,2026-06-25T13:07:54.754464,13.12441684,.00018708,87.8941,349.0056,95.9816,264.1526,0,U,47273,999,26582,.9609999E-3,.358E-5,0
ONEWEB-0128,2020-100S,2026-06-25T11:49:49.848384,13.12443444,.0001612,87.8937,349.0302,93.7528,266.3785,0,U,47274,999,26583,-.16135007E-2,-.568E-5,0
ONEWEB-0129,2020-100T,2026-06-25T11:20:33.959328,13.12443505,.00027256,87.8952,349.0089,110.7189,249.4231,0,U,47275,999,26576,.11376963E-2,.422E-5,0
