[
  {
    "name": "ONEWEB-0068",
    "noradId": "45446",
    "line1": "1 45446U 20020Y   26176.54599356  .00000485  00000+0  13323-2 0  9995",
    "line2": "2 45446  87.8890  19.4002 0001687  82.2009 277.9311 13.11417287303690"
  },
  {
    "name": "ONEWEB-0046",
    "noradId": "45447",
    "line1": "1 45447U 20020Z   26176.53764717  .00000200  00000+0  52832-3 0  9994",
    "line2": "2 45447  87.8883  19.4072 0001895  78.4839 281.6502 13.11417498303709"
  },
  {
    "name": "ONEWEB-0063",
    "noradId": "45448",
    "line1": "1 45448U 20020AA  26176.56660521  .00000244  00000+0  65325-3 0  9995",
    "line2": "2 45448  87.8890  19.4007 0002091  83.6697 276.4669 13.11414004303790"
  },
  {
    "name": "ONEWEB-0019",
    "noradId": "45449",
    "line1": "1 45449U 20020AB  26176.52902843 -.00000167  00000+0 -50805-3 0  9991",
    "line2": "2 45449  87.8885  19.3943 0001811  91.9456 268.1879 13.11418483303636"
  },
  {
    "name": "ONEWEB-0094",
    "noradId": "45450",
    "line1": "1 45450U 20020AC  26176.55592074  .00000044  00000+0  79851-4 0  9992",
    "line2": "2 45450  87.9141   4.1847 0001645  91.2397 268.8923 13.17648015307410"
  },
  {
    "name": "ONEWEB-0087",
    "noradId": "45451",
    "line1": "1 45451U 20020AD  26176.57649637 -.00000145  00000+0 -44579-3 0  9995",
    "line2": "2 45451  87.8898  19.3735 0001578  81.6065 278.5242 13.11414465303684"
  },
  {
    "name": "ONEWEB-0082",
    "noradId": "45452",
    "line1": "1 45452U 20020AE  26176.57311128 -.00000022  00000+0 -98100-4 0  9991",
    "line2": "2 45452  87.8890  19.3901 0001654  72.1760 287.9549 13.11414217303773"
  },
  {
    "name": "ONEWEB-0050",
    "noradId": "45453",
    "line1": "1 45453U 20020AF  26176.40091753  .00002098  00000+0  21337-3 0  9993",
    "line2": "2 45453  88.9288 232.0946 0001567  12.3108 347.8159 14.90409870341609"
  },
  {
    "name": "ONEWEB-0034",
    "noradId": "45454",
    "line1": "1 45454U 20020AG  26176.53439518 -.00000228  00000+0 -67776-3 0  9995",
    "line2": "2 45454  87.8894  19.4075 0001545  88.4802 271.6503 13.11418956303682"
  },
  {
    "name": "ONEWEB-0060",
    "noradId": "45455",
    "line1": "1 45455U 20020AH  26176.56562131  .00000311  00000+0  84251-3 0  9995",
    "line2": "2 45455  87.8883  19.3983 0000922  67.0094 293.1131 13.11414401303645"
  },
  {
    "name": "ONEWEB-0086",
    "noradId": "45456",
    "line1": "1 45456U 20020AJ  26176.54429730 -.00000089  00000+0 -28613-3 0  9995",
    "line2": "2 45456  87.8892  19.3986 0000958 109.9153 250.2079 13.11419650303703"
  },
  {
    "name": "ONEWEB-0088",
    "noradId": "45457",
    "line1": "1 45457U 20020AK  26176.52236996 -.00000408  00000+0 -11882-2 0  9998",
    "line2": "2 45457  87.8899  19.3765 0002117  77.8232 282.3133 13.11416716303635"
  },
  {
    "name": "ONEWEB-0102",
    "noradId": "47258",
    "line1": "1 47258U 20100A   26176.52005040 -.00000192  00000+0 -56768-3 0  9995",
    "line2": "2 47258  87.8942 349.0174 0001719 101.4506 258.6816 13.12443335265827"
  },
  {
    "name": "ONEWEB-0109",
    "noradId": "47259",
    "line1": "1 47259U 20100B   26176.52852521  .00000102  00000+0  24924-3 0  9998",
    "line2": "2 47259  87.8954 348.9998 0001892  96.5511 263.5833 13.12443465265654"
  },
  {
    "name": "ONEWEB-0110",
    "noradId": "47260",
    "line1": "1 47260U 20100C   26176.47939143  .00000284  00000+0  75391-3 0  9995",
    "line2": "2 47260  87.8953 348.9937 0001557  95.5037 264.6269 13.12440831265815"
  },
  {
    "name": "ONEWEB-0111",
    "noradId": "47261",
    "line1": "1 47261U 20100D   26176.50988271 -.00000307  00000+0 -88750-3 0  9997",
    "line2": "2 47261  87.8953 349.0064 0001753  90.9085 269.2245 13.12442658265655"
  },
  {
    "name": "ONEWEB-0114",
    "noradId": "47262",
    "line1": "1 47262U 20100E   26176.46415390  .00000468  00000+0  12654-2 0  9995",
    "line2": "2 47262  87.8953 349.0132 0001956  96.9767 263.1584 13.12446373265602"
  },
  {
    "name": "ONEWEB-0117",
    "noradId": "47263",
    "line1": "1 47263U 20100F   26176.53190718  .00000238  00000+0  62695-3 0  9994",
    "line2": "2 47263  87.8951 348.9903 0001787  93.0152 267.1181 13.12444863265624"
  },
  {
    "name": "ONEWEB-0118",
    "noradId": "47264",
    "line1": "1 47264U 20100G   26176.48955131 -.00000060  00000+0 -20325-3 0  9996",
    "line2": "2 47264  87.8951 349.0013 0002125  89.9103 270.2269 13.12442066265812"
  },
  {
    "name": "ONEWEB-0119",
    "noradId": "47265",
    "line1": "1 47265U 20100H   26176.51496054 -.00000259  00000+0 -75527-3 0  9999",
    "line2": "2 47265  87.8942 349.0124 0001849  92.8750 267.2590 13.12444718265795"
  },
  {
    "name": "ONEWEB-0120",
    "noradId": "47266",
    "line1": "1 47266U 20100J   26176.53882137  .00000398  00000+0  10720-2 0  9998",
    "line2": "2 47266  87.8942 349.0088 0001931  96.8031 263.3317 13.12444769265827"
  },
  {
    "name": "ONEWEB-0121",
    "noradId": "47267",
    "line1": "1 47267U 20100K   26176.52681813  .00000031  00000+0  52051-4 0  9995",
    "line2": "2 47267  87.8952 348.9980 0001573  84.4435 275.6873 13.12445278265730"
  },
  {
    "name": "ONEWEB-0122",
    "noradId": "47268",
    "line1": "1 47268U 20100L   26176.52090078 -.00000114  00000+0 -35087-3 0  9996",
    "line2": "2 47268  87.8955 349.0039 0001800  97.6784 262.4549 13.12444881265640"
  },
  {
    "name": "ONEWEB-0123",
    "noradId": "47269",
    "line1": "1 47269U 20100M   26176.51664998 -.00000385  00000+0 -11045-2 0  9991",
    "line2": "2 47269  87.8942 349.0111 0001942  90.9269 269.2082 13.12443945265781"
  },
  {
    "name": "ONEWEB-0124",
    "noradId": "47270",
    "line1": "1 47270U 20100N   26176.50648504 -.00000361  00000+0 -10396-2 0  9999",
    "line2": "2 47270  87.8941 349.0160 0001761  89.7100 270.4230 13.12441789265665"
  },
  {
    "name": "ONEWEB-0125",
    "noradId": "47271",
    "line1": "1 47271U 20100P   26176.48446975  .00000123  00000+0  30575-3 0  9991",
    "line2": "2 47271  87.8954 349.0046 0001824  82.2025 277.9311 13.12440618265726"
  },
  {
    "name": "ONEWEB-0126",
    "noradId": "47272",
    "line1": "1 47272U 20100Q   26176.50494360 -.00000347  00000+0 -10002-2 0  9998",
    "line2": "2 47272  87.8947 349.0156 0001929  95.0668 265.0681 13.12443249265790"
  },
  {
    "name": "ONEWEB-0127",
    "noradId": "47273",
    "line1": "1 47273U 20100R   26176.54716151  .00000358  00000+0  96100-3 0  9992",
    "line2": "2 47273  87.8941 349.0056 0001870  95.9816 264.1526 13.12441684265826"
  },
  {
    "name": "ONEWEB-0128",
    "noradId": "47274",
    "line1": "1 47274U 20100S   26176.49293806 -.00000568  00000+0 -16135-2 0  9998",
    "line2": "2 47274  87.8937 349.0302 0001612  93.7528 266.3785 13.12443444265834"
  },
  {
    "name": "ONEWEB-0129",
    "noradId": "47275",
    "line1": "1 47275U 20100T   26176.47261527  .00000422  00000+0  11377-2 0  9992",
    "line2": "2 47275  87.8952 349.0089 0002725 110.7189 249.4231 13.12443505265761"
  }
]